#cP2005  4  1 00 00 00.00000000    2880 *POS* WGS84 FIT DLR*
## 1316 432000.00000000    30.00000000 53461 0.0000000000000
+    1   L06  0  0  0  0  0  0  0  0  0  0  0  0  0  0  0  0
+          0  0  0  0  0  0  0  0  0  0  0  0  0  0  0  0  0
+          0  0  0  0  0  0  0  0  0  0  0  0  0  0  0  0  0
+          0  0  0  0  0  0  0  0  0  0  0  0  0  0  0  0  0
+          0  0  0  0  0  0  0  0  0  0  0  0  0  0  0  0  0
++         0  0  0  0  0  0  0  0  0  0  0  0  0  0  0  0  0
++         0  0  0  0  0  0  0  0  0  0  0  0  0  0  0  0  0
++         0  0  0  0  0  0  0  0  0  0  0  0  0  0  0  0  0
++         0  0  0  0  0  0  0  0  0  0  0  0  0  0  0  0  0
++         0  0  0  0  0  0  0  0  0  0  0  0  0  0  0  0  0
%c cc cc ccc ccc cccc cccc cccc cccc ccccc ccccc ccccc ccccc
%c cc cc ccc ccc cccc cccc cccc cccc ccccc ccccc ccccc ccccc
%f   .0000000   .000000000   .00000000000   .000000000000000
%f   .0000000   .000000000   .00000000000   .000000000000000
%i    0    0    0    0      0      0      0      0         0
%i    0    0    0    0      0      0      0      0         0
/* NOTE: CCCCCCCCCCCCCCCCCCCCCCCCCCCCCCCCCCCCCCCCCCCCCCCCCCC
/* CCCCCCCCCCCCCCCCCCCCCCCCCCCCCCCCCCCCCCCCCCCCCCCCCCCCCCCCC
/* CCCCCCCCCCCCCCCCCCCCCCCCCCCCCCCCCCCCCCCCCCCCCCCCCCCCCCCCC
/* CCCCCCCCCCCCCCCCCCCCCCCCCCCCCCCCCCCCCCCCCCCCCCCCCCCCCCCCC
*  2005 04 01 10 51 00.00000000
PL06  -4975.973956  -3499.201241  -2911.653723 999999.000000
*  2005 04 01 10 51 30.00000000
PL06  -5054.922017  -3553.190569  -2702.196668 999999.000000
*  2005 04 01 10 52 00.00000000
PL06  -5128.207100  -3602.707038  -2489.569185 999999.000000
*  2005 04 01 10 52 30.00000000
PL06  -5195.722469  -3647.716765  -2274.019900 999999.000000
*  2005 04 01 10 53 00.00000000
PL06  -5257.367972  -3688.191570  -2055.801032 999999.000000
*  2005 04 01 10 53 30.00000000
PL06  -5313.050195  -3724.108992  -1835.168101 999999.000000
*  2005 04 01 10 54 00.00000000
PL06  -5362.682617  -3755.452294  -1612.379631 999999.000000
*  2005 04 01 10 54 30.00000000
PL06  -5406.185752  -3782.210474  -1387.696830 999999.000000
*  2005 04 01 10 55 00.00000000
PL06  -5443.487272  -3804.378240  -1161.383274 999999.000000
*  2005 04 01 10 55 30.00000000
PL06  -5474.522119  -3821.955990   -933.704593 999999.000000
*  2005 04 01 10 56 00.00000000
PL06  -5499.232620  -3834.949790   -704.928165 999999.000000
*  2005 04 01 10 56 30.00000000
PL06  -5517.568590  -3843.371335   -475.322789 999999.000000
*  2005 04 01 10 57 00.00000000
PL06  -5529.487435  -3847.237918   -245.158365 999999.000000
*  2005 04 01 10 57 30.00000000
PL06  -5534.954226  -3846.572385    -14.705562 999999.000000
*  2005 04 01 10 58 00.00000000
PL06  -5533.941777  -3841.403080    215.764515 999999.000000
*  2005 04 01 10 58 30.00000000
PL06  -5526.430708  -3831.763782    445.980660 999999.000000
*  2005 04 01 10 59 00.00000000
PL06  -5512.409490  -3817.693631    675.671899 999999.000000
*  2005 04 01 10 59 30.00000000
PL06  -5491.874484  -3799.237049    904.567825 999999.000000
*  2005 04 01 11 00 00.00000000
PL06  -5464.829966  -3776.443654   1132.398924 999999.000000
*  2005 04 01 11 00 30.00000000
PL06  -5431.288144  -3749.368162   1358.896905 999999.000000
*  2005 04 01 11 01 00.00000000
PL06  -5391.269169  -3718.070292   1583.795025 999999.000000
*  2005 04 01 11 01 30.00000000
PL06  -5344.801130  -3682.614660   1806.828412 999999.000000
*  2005 04 01 11 02 00.00000000
PL06  -5291.920043  -3643.070661   2027.734395 999999.000000
*  2005 04 01 11 02 30.00000000
PL06  -5232.669822  -3599.512358   2246.252812 999999.000000
*  2005 04 01 11 03 00.00000000
PL06  -5167.102243  -3552.018353   2462.126334 999999.000000
*  2005 04 01 11 03 30.00000000
PL06  -5095.276901  -3500.671668   2675.100772 999999.000000
*  2005 04 01 11 04 00.00000000
PL06  -5017.261150  -3445.559601   2884.925383 999999.000000
*  2005 04 01 11 04 30.00000000
PL06  -4933.130042  -3386.773589   3091.353172 999999.000000
*  2005 04 01 11 05 00.00000000
PL06  -4842.966257  -3324.409067   3294.141195 999999.000000
*  2005 04 01 11 05 30.00000000
PL06  -4746.860012  -3258.565315   3493.050851 999999.000000
*  2005 04 01 11 06 00.00000000
PL06  -4644.908963  -3189.345302   3687.848180 999999.000000
*  2005 04 01 11 06 30.00000000
PL06  -4537.218089  -3116.855526   3878.304134 999999.000000
*  2005 04 01 11 07 00.00000000
PL06  -4423.899577  -3041.205843   4064.194844 999999.000000
*  2005 04 01 11 07 30.00000000
PL06  -4305.072697  -2962.509308   4245.301881 999999.000000
*  2005 04 01 11 08 00.00000000
PL06  -4180.863663  -2880.882009   4421.412513 999999.000000
*  2005 04 01 11 08 30.00000000
PL06  -4051.405495  -2796.442891   4592.319946 999999.000000
*  2005 04 01 11 09 00.00000000
PL06  -3916.837877  -2709.313590   4757.823569 999999.000000
*  2005 04 01 11 09 30.00000000
PL06  -3777.306989  -2619.618253   4917.729184 999999.000000
*  2005 04 01 11 10 00.00000000
PL06  -3632.965345  -2527.483360   5071.849235 999999.000000
*  2005 04 01 11 10 30.00000000
PL06  -3483.971619  -2433.037550   5220.003017 999999.000000
*  2005 04 01 11 11 00.00000000
PL06  -3330.490465  -2336.411442   5362.016884 999999.000000
*  2005 04 01 11 11 30.00000000
PL06  -3172.692329  -2237.737462   5497.724458 999999.000000
*  2005 04 01 11 12 00.00000000
PL06  -3010.753255  -2137.149653   5626.966824 999999.000000
*  2005 04 01 11 12 30.00000000
PL06  -2844.854664  -2034.783490   5749.592712 999999.000000
*  2005 04 01 11 13 00.00000000
PL06  -2675.183144  -1930.775687   5865.458655 999999.000000
*  2005 04 01 11 13 30.00000000
PL06  -2501.930251  -1825.264021   5974.429134 999999.000000
*  2005 04 01 11 14 00.00000000
PL06  -2325.292308  -1718.387154   6076.376761 999999.000000
*  2005 04 01 11 14 30.00000000
PL06  -2145.470149  -1610.284446   6171.182443 999999.000000
*  2005 04 01 11 15 00.00000000
PL06  -1962.668875  -1501.095753   6258.735495 999999.000000
*  2005 04 01 11 15 30.00000000
PL06  -1777.097617  -1390.961259   6338.933758 999999.000000
*  2005 04 01 11 16 00.00000000
PL06  -1588.969279  -1280.021293   6411.683713 999999.000000
*  2005 04 01 11 16 30.00000000
PL06  -1398.500287  -1168.416132   6476.900560 999999.000000
*  2005 04 01 11 17 00.00000000
PL06  -1205.910356  -1056.285836   6534.508292 999999.000000
*  2005 04 01 11 17 30.00000000
PL06  -1011.422241   -943.770084   6584.439780 999999.000000
*  2005 04 01 11 18 00.00000000
PL06   -815.261486   -831.008000   6626.636858 999999.000000
*  2005 04 01 11 18 30.00000000
PL06   -617.656152   -718.137987   6661.050380 999999.000000
*  2005 04 01 11 19 00.00000000
PL06   -418.836566   -605.297551   6687.640281 999999.000000
*  2005 04 01 11 19 30.00000000
PL06   -219.035052   -492.623146   6706.375618 999999.000000
*  2005 04 01 11 20 00.00000000
PL06    -18.485664   -380.250001   6717.234614 999999.000000
*  2005 04 01 11 20 30.00000000
PL06    182.576096   -268.311960   6720.204691 999999.000000
*  2005 04 01 11 21 00.00000000
PL06    383.913556   -156.941316   6715.282477 999999.000000
*  2005 04 01 11 21 30.00000000
PL06    585.289155    -46.268651   6702.473798 999999.000000
*  2005 04 01 11 22 00.00000000
PL06    786.464710     63.577307   6681.793671 999999.000000
*  2005 04 01 11 22 30.00000000
PL06    987.201700    172.469830   6653.266295 999999.000000
*  2005 04 01 11 23 00.00000000
PL06   1187.261554    280.284341   6616.925023 999999.000000
*  2005 04 01 11 23 30.00000000
PL06   1386.405927    386.898550   6572.812331 999999.000000
*  2005 04 01 11 24 00.00000000
PL06   1584.396988    492.192601   6520.979773 999999.000000
*  2005 04 01 11 24 30.00000000
PL06   1780.997703    596.049205   6461.487925 999999.000000
*  2005 04 01 11 25 00.00000000
PL06   1975.972117    698.353782   6394.406315 999999.000000
*  2005 04 01 11 25 30.00000000
PL06   2169.085642    798.994585   6319.813348 999999.000000
*  2005 04 01 11 26 00.00000000
PL06   2360.105334    897.862821   6237.796216 999999.000000
*  2005 04 01 11 26 30.00000000
PL06   2548.800182    994.852761   6148.450805 999999.000000
*  2005 04 01 11 27 00.00000000
PL06   2734.941400   1089.861852   6051.881594 999999.000000
*  2005 04 01 11 27 30.00000000
PL06   2918.302700   1182.790834   5948.201521 999999.000000
*  2005 04 01 11 28 00.00000000
PL06   3098.660571   1273.543840   5837.531858 999999.000000
*  2005 04 01 11 28 30.00000000
PL06   3275.794545   1362.028488   5720.002071 999999.000000
*  2005 04 01 11 29 00.00000000
PL06   3449.487470   1448.155974   5595.749677 999999.000000
*  2005 04 01 11 29 30.00000000
PL06   3619.525780   1531.841158   5464.920098 999999.000000
*  2005 04 01 11 30 00.00000000
PL06   3785.699759   1613.002651   5327.666504 999999.000000
*  2005 04 01 11 30 30.00000000
PL06   3947.803812   1691.562892   5184.149645 999999.000000
*  2005 04 01 11 31 00.00000000
PL06   4105.636723   1767.448231   5034.537664 999999.000000
*  2005 04 01 11 31 30.00000000
PL06   4259.001904   1840.588992   4879.005915 999999.000000
*  2005 04 01 11 32 00.00000000
PL06   4407.707664   1910.919545   4717.736770 999999.000000
*  2005 04 01 11 32 30.00000000
PL06   4551.567453   1978.378365   4550.919408 999999.000000
*  2005 04 01 11 33 00.00000000
PL06   4690.400112   2042.908089   4378.749597 999999.000000
*  2005 04 01 11 33 30.00000000
PL06   4824.030112   2104.455564   4201.429481 999999.000000
*  2005 04 01 11 34 00.00000000
PL06   4952.287811   2162.971878   4019.167330 999999.000000
*  2005 04 01 11 34 30.00000000
PL06   5075.009697   2218.412389   3832.177287 999999.000000
*  2005 04 01 11 35 00.00000000
PL06   5192.038599   2270.736747   3640.679061 999999.000000
*  2005 04 01 11 35 30.00000000
PL06   5303.223814   2319.908916   3444.897666 999999.000000
*  2005 04 01 11 36 00.00000000
PL06   5408.421293   2365.897205   3245.063234 999999.000000
*  2005 04 01 11 36 30.00000000
PL06   5507.493902   2408.674286   3041.410752 999999.000000
*  2005 04 01 11 37 00.00000000
PL06   5600.311624   2448.217193   2834.179751 999999.000000
EOF
